[
  {
    "OBJECT_NAME": "STARLINK-2251",
    "OBJECT_ID": "21041AT",
    "EPOCH": "2025-11-11T04:26:22.130304",
    "MEAN_MOTION": 15.06399917,
    "ECCENTRICITY": 0.0001714,
    "INCLINATION": 53.0556,
    "RA_OF_ASC_NODE": 283.6887,
    "ARG_OF_PERICENTER": 95.9509,
    "MEAN_ANOMALY": 264.1676,
    "EPHEMERIS_TYPE": 0,
    "CLASSIFICATION_TYPE": "U",
    "NORAD_CAT_ID": 48594,
    "ELEMENT_SET_NO": 999,
    "REV_AT_EPOCH": 24762,
    "BSTAR": 3.6211e-05,
    "MEAN_MOTION_DOT": 2.58e-06,
    "MEAN_MOTION_DDOT": 0.0,
    "TLE_LINE1": "1 48594U 21041AT  25315.18497836  .00000258  00000+0  36211-4 0  9991",
    "TLE_LINE2": "2 48594  53.0556 283.6887 0001714  95.9509 264.1676 15.06399917247621",
    "COMMENT": "Grouped by shell and plane from TLE"
  },
  {
    "OBJECT_NAME": "STARLINK-2713",
    "OBJECT_ID": "21041BB",
    "EPOCH": "2025-11-11T07:07:32.966976",
    "MEAN_MOTION": 15.0641083,
    "ECCENTRICITY": 0.0001311,
    "INCLINATION": 53.0562,
    "RA_OF_ASC_NODE": 288.1037,
    "ARG_OF_PERICENTER": 96.9642,
    "MEAN_ANOMALY": 263.1496,
    "EPHEMERIS_TYPE": 0,
    "CLASSIFICATION_TYPE": "U",
    "NORAD_CAT_ID": 48602,
    "ELEMENT_SET_NO": 999,
    "REV_AT_EPOCH": 24882,
    "BSTAR": 0.0,
    "MEAN_MOTION_DOT": -3.278e-05,
    "MEAN_MOTION_DDOT": 0.0,
    "TLE_LINE1": "1 48602U 21041BB  25315.29690934 -.00003278  00000+0 -20122-3 0  9997",
    "TLE_LINE2": "2 48602  53.0562 288.1037 0001311  96.9642 263.1496 15.06410830248827",
    "COMMENT": "Grouped by shell and plane from TLE"
  },
  {
    "OBJECT_NAME": "STARLINK-2714",
    "OBJECT_ID": "21041BC",
    "EPOCH": "2025-11-11T05:02:07.802592",
    "MEAN_MOTION": 15.06401384,
    "ECCENTRICITY": 0.0001272,
    "INCLINATION": 53.0546,
    "RA_OF_ASC_NODE": 283.4932,
    "ARG_OF_PERICENTER": 90.2986,
    "MEAN_ANOMALY": 269.8148,
    "EPHEMERIS_TYPE": 0,
    "CLASSIFICATION_TYPE": "U",
    "NORAD_CAT_ID": 48603,
    "ELEMENT_SET_NO": 999,
    "REV_AT_EPOCH": 24889,
    "BSTAR": 0.00029234,
    "MEAN_MOTION_DOT": 4.076e-05,
    "MEAN_MOTION_DDOT": 0.0,
    "TLE_LINE1": "1 48603U 21041BC  25315.20981253  .00004076  00000+0  29234-3 0  9994",
    "TLE_LINE2": "2 48603  53.0546 283.4932 0001272  90.2986 269.8148 15.06401384248894",
    "COMMENT": "Grouped by shell and plane from TLE"
  },
  {
    "OBJECT_NAME": "STARLINK-2739",
    "OBJECT_ID": "21044B",
    "EPOCH": "2025-11-11T05:10:47.305920",
    "MEAN_MOTION": 15.06399506,
    "ECCENTRICITY": 0.0001303,
    "INCLINATION": 53.0552,
    "RA_OF_ASC_NODE": 288.4779,
    "ARG_OF_PERICENTER": 97.1678,
    "MEAN_ANOMALY": 262.946,
    "EPHEMERIS_TYPE": 0,
    "CLASSIFICATION_TYPE": "U",
    "NORAD_CAT_ID": 48639,
    "ELEMENT_SET_NO": 999,
    "REV_AT_EPOCH": 24592,
    "BSTAR": 0.00075725,
    "MEAN_MOTION_DOT": 0.00011015,
    "MEAN_MOTION_DDOT": 0.0,
    "TLE_LINE1": "1 48639U 21044B   25315.21582530  .00011015  00000+0  75725-3 0  9999",
    "TLE_LINE2": "2 48639  53.0552 288.4779 0001303  97.1678 262.9460 15.06399506245927",
    "COMMENT": "Grouped by shell and plane from TLE"
  },
  {
    "OBJECT_NAME": "STARLINK-2736",
    "OBJECT_ID": "21044C",
    "EPOCH": "2025-11-11T05:00:13.596480",
    "MEAN_MOTION": 15.06409784,
    "ECCENTRICITY": 0.0001654,
    "INCLINATION": 53.0559,
    "RA_OF_ASC_NODE": 288.7833,
    "ARG_OF_PERICENTER": 88.0369,
    "MEAN_ANOMALY": 272.0809,
    "EPHEMERIS_TYPE": 0,
    "CLASSIFICATION_TYPE": "U",
    "NORAD_CAT_ID": 48640,
    "ELEMENT_SET_NO": 999,
    "REV_AT_EPOCH": 24591,
    "BSTAR": 0.00056199,
    "MEAN_MOTION_DOT": 8.101e-05,
    "MEAN_MOTION_DDOT": 0.0,
    "TLE_LINE1": "1 48640U 21044C   25315.20849070  .00008101  00000+0  56199-3 0  9991",
    "TLE_LINE2": "2 48640  53.0559 288.7833 0001654  88.0369 272.0809 15.06409784245913",
    "COMMENT": "Grouped by shell and plane from TLE"
  },
  {
    "OBJECT_NAME": "STARLINK-2726",
    "OBJECT_ID": "21044AA",
    "EPOCH": "2025-11-11T06:54:57.634848",
    "MEAN_MOTION": 15.06387653,
    "ECCENTRICITY": 0.0001451,
    "INCLINATION": 53.0578,
    "RA_OF_ASC_NODE": 283.1487,
    "ARG_OF_PERICENTER": 96.2588,
    "MEAN_ANOMALY": 263.8566,
    "EPHEMERIS_TYPE": 0,
    "CLASSIFICATION_TYPE": "U",
    "NORAD_CAT_ID": 48662,
    "ELEMENT_SET_NO": 999,
    "REV_AT_EPOCH": 24600,
    "BSTAR": 3.2565000000000004e-05,
    "MEAN_MOTION_DOT": 2.03e-06,
    "MEAN_MOTION_DDOT": 0.0,
    "TLE_LINE1": "1 48662U 21044AA  25315.28816707  .00000203  00000+0  32565-4 0  9991",
    "TLE_LINE2": "2 48662  53.0578 283.1487 0001451  96.2588 263.8566 15.06387653246000",
    "COMMENT": "Grouped by shell and plane from TLE"
  },
  {
    "OBJECT_NAME": "STARLINK-2667",
    "OBJECT_ID": "21044AB",
    "EPOCH": "2025-11-11T06:49:38.523360",
    "MEAN_MOTION": 15.06393637,
    "ECCENTRICITY": 0.0001439,
    "INCLINATION": 53.0537,
    "RA_OF_ASC_NODE": 283.1597,
    "ARG_OF_PERICENTER": 88.3067,
    "MEAN_ANOMALY": 271.8087,
    "EPHEMERIS_TYPE": 0,
    "CLASSIFICATION_TYPE": "U",
    "NORAD_CAT_ID": 48663,
    "ELEMENT_SET_NO": 999,
    "REV_AT_EPOCH": 24600,
    "BSTAR": 0.0,
    "MEAN_MOTION_DOT": -3.62e-06,
    "MEAN_MOTION_DDOT": 0.0,
    "TLE_LINE1": "1 48663U 21044AB  25315.28447365 -.00000362  00000+0 -54414-5 0  9998",
    "TLE_LINE2": "2 48663  53.0537 283.1597 0001439  88.3067 271.8087 15.06393637246004",
    "COMMENT": "Grouped by shell and plane from TLE"
  },
  {
    "OBJECT_NAME": "STARLINK-2666",
    "OBJECT_ID": "21044AE",
    "EPOCH": "2025-11-11T05:46:02.872992",
    "MEAN_MOTION": 15.06379657,
    "ECCENTRICITY": 0.0001567,
    "INCLINATION": 53.0554,
    "RA_OF_ASC_NODE": 283.8286,
    "ARG_OF_PERICENTER": 91.142,
    "MEAN_ANOMALY": 268.9749,
    "EPHEMERIS_TYPE": 0,
    "CLASSIFICATION_TYPE": "U",
    "NORAD_CAT_ID": 48666,
    "ELEMENT_SET_NO": 999,
    "REV_AT_EPOCH": 24598,
    "BSTAR": 0.0,
    "MEAN_MOTION_DOT": -7.55e-06,
    "MEAN_MOTION_DDOT": 0.0,
    "TLE_LINE1": "1 48666U 21044AE  25315.24031103 -.00000755  00000+0 -31819-4 0  9995",
    "TLE_LINE2": "2 48666  53.0554 283.8286 0001567  91.1420 268.9749 15.06379657245989",
    "COMMENT": "Grouped by shell and plane from TLE"
  },
  {
    "OBJECT_NAME": "STARLINK-2735",
    "OBJECT_ID": "21044AF",
    "EPOCH": "2025-11-11T05:03:30.445920",
    "MEAN_MOTION": 15.06404427,
    "ECCENTRICITY": 0.0001479,
    "INCLINATION": 53.0547,
    "RA_OF_ASC_NODE": 283.4915,
    "ARG_OF_PERICENTER": 95.4828,
    "MEAN_ANOMALY": 264.633,
    "EPHEMERIS_TYPE": 0,
    "CLASSIFICATION_TYPE": "U",
    "NORAD_CAT_ID": 48667,
    "ELEMENT_SET_NO": 999,
    "REV_AT_EPOCH": 24599,
    "BSTAR": 0.00036149,
    "MEAN_MOTION_DOT": 5.108e-05,
    "MEAN_MOTION_DDOT": 0.0,
    "TLE_LINE1": "1 48667U 21044AF  25315.21076905  .00005108  00000+0  36149-3 0  9997",
    "TLE_LINE2": "2 48667  53.0547 283.4915 0001479  95.4828 264.6330 15.06404427245992",
    "COMMENT": "Grouped by shell and plane from TLE"
  },
  {
    "OBJECT_NAME": "STARLINK-2738",
    "OBJECT_ID": "21044AG",
    "EPOCH": "2025-11-11T06:33:43.459488",
    "MEAN_MOTION": 15.06395797,
    "ECCENTRICITY": 0.0001264,
    "INCLINATION": 53.0548,
    "RA_OF_ASC_NODE": 283.2084,
    "ARG_OF_PERICENTER": 83.8998,
    "MEAN_ANOMALY": 276.2135,
    "EPHEMERIS_TYPE": 0,
    "CLASSIFICATION_TYPE": "U",
    "NORAD_CAT_ID": 48668,
    "ELEMENT_SET_NO": 999,
    "REV_AT_EPOCH": 24600,
    "BSTAR": 0.0002195,
    "MEAN_MOTION_DOT": 2.989e-05,
    "MEAN_MOTION_DDOT": 0.0,
    "TLE_LINE1": "1 48668U 21044AG  25315.27341967  .00002989  00000+0  21950-3 0  9995",
    "TLE_LINE2": "2 48668  53.0548 283.2084 0001264  83.8998 276.2135 15.06395797246004",
    "COMMENT": "Grouped by shell and plane from TLE"
  },
  {
    "OBJECT_NAME": "STARLINK-2707",
    "OBJECT_ID": "21044AH",
    "EPOCH": "2025-11-11T04:52:52.668768",
    "MEAN_MOTION": 15.06402156,
    "ECCENTRICITY": 0.0001593,
    "INCLINATION": 53.0535,
    "RA_OF_ASC_NODE": 283.5242,
    "ARG_OF_PERICENTER": 91.5873,
    "MEAN_ANOMALY": 268.5298,
    "EPHEMERIS_TYPE": 0,
    "CLASSIFICATION_TYPE": "U",
    "NORAD_CAT_ID": 48669,
    "ELEMENT_SET_NO": 999,
    "REV_AT_EPOCH": 24598,
    "BSTAR": 0.00032117,
    "MEAN_MOTION_DOT": 4.506e-05,
    "MEAN_MOTION_DDOT": 0.0,
    "TLE_LINE1": "1 48669U 21044AH  25315.20338737  .00004506  00000+0  32117-3 0  9994",
    "TLE_LINE2": "2 48669  53.0535 283.5242 0001593  91.5873 268.5298 15.06402156245981",
    "COMMENT": "Grouped by shell and plane from TLE"
  },
  {
    "OBJECT_NAME": "STARLINK-2763",
    "OBJECT_ID": "21044AJ",
    "EPOCH": "2025-11-11T04:47:34.274400",
    "MEAN_MOTION": 15.06401818,
    "ECCENTRICITY": 0.0001461,
    "INCLINATION": 53.0549,
    "RA_OF_ASC_NODE": 283.5398,
    "ARG_OF_PERICENTER": 95.4442,
    "MEAN_ANOMALY": 264.6714,
    "EPHEMERIS_TYPE": 0,
    "CLASSIFICATION_TYPE": "U",
    "NORAD_CAT_ID": 48670,
    "ELEMENT_SET_NO": 999,
    "REV_AT_EPOCH": 24598,
    "BSTAR": 0.00034126,
    "MEAN_MOTION_DOT": 4.805e-05,
    "MEAN_MOTION_DDOT": 0.0,
    "TLE_LINE1": "1 48670U 21044AJ  25315.19970225  .00004805  00000+0  34126-3 0  9992",
    "TLE_LINE2": "2 48670  53.0549 283.5398 0001461  95.4442 264.6714 15.06401818245983",
    "COMMENT": "Grouped by shell and plane from TLE"
  },
  {
    "OBJECT_NAME": "STARLINK-2745",
    "OBJECT_ID": "21044AK",
    "EPOCH": "2025-11-11T05:24:47.055168",
    "MEAN_MOTION": 15.06395916,
    "ECCENTRICITY": 0.000139,
    "INCLINATION": 53.0548,
    "RA_OF_ASC_NODE": 283.7336,
    "ARG_OF_PERICENTER": 77.6031,
    "MEAN_ANOMALY": 282.5113,
    "EPHEMERIS_TYPE": 0,
    "CLASSIFICATION_TYPE": "U",
    "NORAD_CAT_ID": 48671,
    "ELEMENT_SET_NO": 999,
    "REV_AT_EPOCH": 24598,
    "BSTAR": 0.00022355,
    "MEAN_MOTION_DOT": 3.049e-05,
    "MEAN_MOTION_DDOT": 0.0,
    "TLE_LINE1": "1 48671U 21044AK  25315.22554462  .00003049  00000+0  22355-3 0  9998",
    "TLE_LINE2": "2 48671  53.0548 283.7336 0001390  77.6031 282.5113 15.06395916245987",
    "COMMENT": "Grouped by shell and plane from TLE"
  }
]